CELESTIS-02 & TAURUS R/B
1 25160U 98007D   24152.96054243  .00000116  00000+0  10894-3 0  9997
2 25160 107.9976 266.4113 0063064 326.8632 133.2447 14.21992791364414
